[{"OBJECT_NAME":"STARLINK-5454","OBJECT_ID":"2022-175S","EPOCH":"2026-03-09T03:44:56.674464","MEAN_MOTION":15.08837878,"ECCENTRICITY":0.00015481,"INCLINATION":53.2177,"RA_OF_ASC_NODE":31.1971,"ARG_OF_PERICENTER":88.48,"MEAN_ANOMALY":271.637,"EPHEMERIS_TYPE":0,"CLASSIFICATION_TYPE":"U","NORAD_CAT_ID":54774,"ELEMENT_SET_NO":999,"REV_AT_EPOCH":18005,"BSTAR":6.5006942e-5,"MEAN_MOTION_DOT":7.47e-6,"MEAN_MOTION_DDOT":0},{"OBJECT_NAME":"OOV-CUBE (TUBSAT-30)","OBJECT_ID":"2024-128F","EPOCH":"2026-03-09T23:05:47.786496","MEAN_MOTION":15.02254773,"ECCENTRICITY":0.00544595,"INCLINATION":61.9946,"RA_OF_ASC_NODE":211.4347,"ARG_OF_PERICENTER":112.4275,"MEAN_ANOMALY":248.2597,"EPHEMERIS_TYPE":0,"CLASSIFICATION_TYPE":"U","NORAD_CAT_ID":60240,"ELEMENT_SET_NO":999,"REV_AT_EPOCH":9120,"BSTAR":0.00032902554,"MEAN_MOTION_DOT":4.289e-5,"MEAN_MOTION_DDOT":0}]
